CCSDS_OEM_VERS = 2.0  
CREATION_DATE  = 2026-05-08T16:26:36
ORIGINATOR     = ESOC/OPS-GFA                            
 
 



META_START
OBJECT_NAME          = LISA                                    
OBJECT_ID            = -1000                                   
CENTER_NAME          = SUN                     
REF_FRAME            = EME2000 
TIME_SYSTEM          = TCB
START_TIME           = 2036-12-23T00:00:30.346418            
STOP_TIME            = 2047-09-08T19:06:22.108119            
INTERPOLATION        = HERMITE                                 
INTERPOLATION_DEGREE = 7                                       
META_STOP

2046-02-19T10:07:20.644030    -8.82685279426138848e+07    1.11313630996919617e+08    4.89850202570696920e+07   -2.40919376282698501e+01   -1.59859158155549608e+01   -6.70092061614497769e+00    3.45203996536194794e-06   -4.35351795759868345e-06   -1.91582308534179149e-06
2046-02-20T06:16:40.853326    -9.00074972817249000e+07    1.10142269756302997e+08    4.84937737704700083e+07   -2.38390080682088907e+01   -1.63001228749277409e+01   -6.83922595788080123e+00    3.51941485136063477e-06   -4.30692610374607058e-06   -1.89626713000204213e-06
2046-02-21T02:26:01.062621    -9.17279373049242049e+07    1.08948233015086502e+08    4.79925436425383314e+07   -2.35812166513183641e+01   -1.66109178571111613e+01   -6.97609849510244917e+00    3.58604670927785686e-06   -4.25947147743459844e-06   -1.87633095019481649e-06
2046-02-21T22:35:21.271916    -9.34294971539334655e+07    1.07731770585175842e+08    4.74814348209503368e+07   -2.33186177592579114e+01   -1.69182385274381950e+01   -7.11151079383669593e+00    3.65192268204156945e-06   -4.21116425233159894e-06   -1.85601883364480290e-06
2046-02-22T18:44:41.481211    -9.51118299496585727e+07    1.06493136765908390e+08    4.69605542320364565e+07   -2.30512667011386974e+01   -1.72220233941332737e+01   -7.24543573332184820e+00    3.71703006119162494e-06   -4.16201472801309786e-06   -1.83533512430861959e-06
2046-02-23T14:54:01.690506    -9.67745928994693756e+07    1.05232590316221148e+08    4.64300107697414905e+07   -2.27792197031913695e+01   -1.75222117166799869e+01   -7.37784650974705158e+00    3.78135627392246039e-06   -4.11203330816582691e-06   -1.81428421269889964e-06
2046-02-24T11:03:21.899802    -9.84174474278497398e+07    1.03950394442178249e+08    4.58899152914647758e+07   -2.25025338994896202e+01   -1.78187435124676590e+01   -7.50871663922679655e+00    3.84488886690355829e-06   -4.06123047487818298e-06   -1.79287052445041891e-06
2046-02-25T07:15:21.901185    -1.00043609812693149e+08    1.02643922516743019e+08    4.53391600364551544e+07   -2.22206428932145812e+01   -1.81122002744872006e+01   -7.63830297111650403e+00    3.90775315074739029e-06   -4.00950275194382661e-06   -1.77105040815395329e-06
2046-02-26T03:27:21.902567    -1.01649107597469866e+08    1.01316247907766044e+08    4.47790392758206502e+07   -2.19342101897140545e+01   -1.84018661259222611e+01   -7.76628960316939398e+00    3.96979604924111815e-06   -3.95697186185245298e-06   -1.74887516415227832e-06
2046-02-26T23:39:21.903951    -1.03233612721998841e+08    9.99676484121117145e+07    4.42096702783105001e+07   -2.16432959511117247e+01   -1.86876830659197921e+01   -7.89265088214885679e+00    4.03100572908295074e-06   -3.90364897110107482e-06   -1.72634951999938225e-06
2046-02-27T19:51:21.905333    -1.04796801475604832e+08    9.85984059939825088e+07    4.36311721560856849e+07   -2.13479611954232809e+01   -1.89695939091616772e+01   -8.01736150015800142e+00    4.09137048800828653e-06   -3.84954534518505108e-06   -1.70347824707072794e-06
2046-02-28T16:03:21.906716    -1.06338354607733831e+08    9.72088067441740036e+07    4.30436658480831832e+07   -2.10482677862525627e+01   -1.92475422935652993e+01   -8.14039649805125443e+00    4.15087877539910765e-06   -3.79467236179066234e-06   -1.68026616648384969e-06
2046-03-01T12:15:21.908100    -1.07857957414530769e+08    9.57991408296806365e+07    4.24472740989847109e+07   -2.07442784211301472e+01   -1.95214726888281724e+01   -8.26173126922530621e+00    4.20951920907511298e-06   -3.73904152090008851e-06   -1.65671815364671394e-06
2046-03-02T08:27:21.909482    -1.09355299806455225e+08    9.43697024356104136e+07    4.18421214346836582e+07   -2.04360566187695589e+01   -1.97913304055952963e+01   -8.38134156369096495e+00    4.26728058827269134e-06   -3.68266445181293333e-06   -1.63283914143582329e-06
2046-03-03T04:39:21.910866    -1.10830076361994103e+08    9.29207897013760805e+07    4.12283341351483837e+07   -2.01236667055185059e+01   -2.00570616050247281e+01   -8.49920349232618477e+00    4.32415190280279437e-06   -3.62555291707584190e-06   -1.60863412200019233e-06
2046-03-04T00:51:21.912248    -1.12281986372530222e+08    9.14527046531314999e+07    4.06060402055800110e+07   -1.98071738012826231e+01   -2.03186133085269702e+01   -8.61529353121053099e+00    4.38012233840353511e-06   -3.56771881333510117e-06   -1.58410814719789021e-06
2046-03-04T21:03:21.913631    -1.13710733883425653e+08    8.99657531344213039e+07    3.99753693467628807e+07   -1.94866438051991047e+01   -2.05759334074537072e+01   -8.72958852594132395e+00    4.43518127826177677e-06   -3.50917416908805077e-06   -1.55926632765438206e-06
2046-03-05T17:15:21.915014    -1.15116027736378923e+08    8.84602447370119542e+07    3.93364529255058095e+07   -1.91621433813377102e+01   -2.08289706725114776e+01   -8.84206569583173518e+00    4.48931830074027487e-06   -3.44993113936650711e-06   -1.53411383045741604e-06
2046-03-06T13:27:21.916397    -1.16497581618114859e+08    8.69364927338725030e+07    3.86894239460723996e+07   -1.88337399447065579e+01   -2.10776747626758123e+01   -8.95270263789107013e+00    4.54252317327825648e-06   -3.39000199732610439e-06   -1.50865587547682595e-06
2046-03-07T09:39:21.917780    -1.17855114120466158e+08    8.53948140162735134e+07    3.80344170234984607e+07   -1.85015016478401897e+01   -2.13219962333814053e+01   -9.06147733048751292e+00    4.59478584245584997e-06   -3.32939912272481185e-06   -1.48289773030198635e-06
2046-03-08T05:51:21.919163    -1.19188348816905558e+08    8.38355290369718522e+07    3.73715683596946299e+07   -1.81654973682472445e+01   -2.15618865437639080e+01   -9.16836813659358363e+00    4.64609642030162971e-06   -3.26813498737486890e-06   -1.45684470383398824e-06
2046-03-09T02:03:21.920545    -1.20497014360587403e+08    8.22589617614500970e+07    3.67010157232327238e+07   -1.78257966969953294e+01   -2.17972980627288635e+01   -9.27335380651454955e+00    4.69644516673016038e-06   -3.20622213745389197e-06   -1.43050213848223135e-06
2046-03-09T22:15:21.921929    -1.21780844608957961e+08    8.06654396291786134e+07    3.60228984337134287e+07   -1.74824699287103975e+01   -2.20281840736233256e+01   -9.37641348000007291e+00    4.74582246814396270e-06   -3.14367317270779910e-06   -1.40387540097962488e-06
2046-03-10T18:33:23.427797    -1.23045772772553727e+08    7.90472481313753128e+07    3.53339310503255054e+07   -1.71338548610318568e+01   -2.22556123492730258e+01   -9.47802445042897546e+00    4.79445747862166937e-06   -3.08018559414539131e-06   -1.37683563167010901e-06
2046-03-11T14:51:24.933665    -1.24285094647096038e+08    7.74126059312351495e+07    3.46376102423423678e+07   -1.67817219473637387e+01   -2.24783782559925918e+01   -9.57764919941201143e+00    4.84209282122010309e-06   -3.01608170033829640e-06   -1.34952000446984313e-06
2046-03-12T11:09:26.439533    -1.25498555852502272e+08    7.57618553971613646e+07    3.39340818983525932e+07   -1.64261445725381776e+01   -2.26964372365388307e+01   -9.67526777337164923e+00    4.88871955284528475e-06   -2.95137474821264181e-06   -1.32193417661005948e-06
2046-03-13T07:27:27.945401    -1.26685907333435133e+08    7.40953421100142598e+07    3.32234933458513580e+07   -1.60671967697469640e+01   -2.29097457051352222e+01   -9.77086063335493726e+00    4.93432887755086529e-06   -2.88607806836985974e-06   -1.29408383853856033e-06
2046-03-14T03:45:29.451270    -1.27846905459905177e+08    7.24134148000162691e+07    3.25059933248428106e+07   -1.57049532088874706e+01   -2.31182610531866004e+01   -9.86440865761230157e+00    4.97891217033864354e-06   -2.82020507369275330e-06   -1.26597471786343903e-06
2046-03-15T00:03:30.957138    -1.28981312101372704e+08    7.07164252792756259e+07    3.17817319593051970e+07   -1.53394891833376974e+01   -2.33219416555394758e+01   -9.95589314442694651e+00    5.02246099643143131e-06   -2.75376926573804988e-06   -1.23761258229727672e-06
2046-03-15T20:21:32.463006    -1.30088894679931670e+08    6.90047283707690537e+07    3.10508607269331105e+07   -1.49708805954880813e+01   -2.35207468771286976e+01   -1.00452958151229197e+01    5.06496712602420161e-06   -2.68678423891701952e-06   -1.20900324160253349e-06
2046-03-16T16:39:33.968874    -1.31169426208145097e+08    6.72786818346372992e+07    3.03135324275773019e+07   -1.45992039413607948e+01   -2.37146370798486359e+01   -1.01325988171787813e+01    5.10642254450390877e-06   -2.61926368245905398e-06   -1.18015254853583555e-06
2046-03-17T12:57:35.474742    -1.32222685317101479e+08    6.55386462926483154e+07    2.95699011508023329e+07   -1.42245362946471872e+01   -2.39035736294871946e+01   -1.02177847273738340e+01    5.14681945815576477e-06   -2.55122138016802791e-06   -1.15106639879556887e-06
2046-03-18T09:15:36.980610    -1.33248456280261010e+08    6.37849851516817957e+07    2.88201222429825068e+07   -1.38469552904940336e+01   -2.40875189025608059e+01   -1.03008365548938787e+01    5.18615029532605793e-06   -2.48267120795451065e-06   -1.12175072996519541e-06
2046-03-19T05:33:38.486478    -1.34246529038661778e+08    6.20180645270895064e+07    2.80643522743563876e+07   -1.34665391093693483e+01   -2.42664362928886952e+01   -1.03817377443234271e+01    5.22440770308470838e-06   -2.41362712916778167e-06   -1.09221151946302576e-06
